BRO-15                  
1 60553U 24149CP  26068.78650368  .00000816  00000+0  78021-4 0  9990
2 60553  97.6864 146.0377 0009320  65.4416 294.7775 14.95892184 85149
STARLINK-34675          
1 64809U 25150V   26068.59944683  .00006513  00000+0  55310-3 0  9991
2 64809  70.0017 134.6736 0003422 269.9117  90.1650 14.98331751 36507
